        SPCS","OBJECT_NAME":"STARLINK-1895","OBJECT_ID":"2020-088BF","CENTER_NAME":"EARTH","REF_FRAME":"TEME","TIME_SYSTEM":"UTC","MEAN_ELEMENT_THEORY":"SGP4","EPOCH":"2021-02-07T20:00:01.000224","MEAN_MOTION":15.62746147,"ECCENTRICITY":0.0001043,"INCLINATION":53.0552,"RA_OF_ASC_NODE":346.5139,"ARG_OF_PERICENTER":66.7721,"MEAN_ANOMALY":83.0539,"EPHEMERIS_TYPE":0,"CLASSIFICATION_TYPE":"U","NORAD_CAT_ID":47175,"ELEMENT_SET_NO":999,"REV_AT_EPOCH":1220,"BSTAR":0.0009164,"MEAN_MOTION_DOT":0.00084222,"MEAN_MOTION_DDOT":0,"SEMIMAJOR_AXIS":6757.866,"PERIOD":92.145,"APOAPSIS":380.435,"PERIAPSIS":379.026,"OBJECT_TYPE":"PAYLOAD","RCS_SIZE":"LARGE","COUNTRY_CODE":"US","LAUNCH_DATE":"2020-11-25","SITE":"AFETR","DECAY_DATE":null,"DECAYED":0,"FILE":2953577,"GP_ID":171283072,"TLE_LINE0":"0
        STARLINK-1895","TLE_LINE1":"1 47175U 20088BF  21038.83334491  .00084222  00000-0  91640-3
        0  9992","TLE_LINE2":"2 47175  53.0552 346.5139 0001043  66.7721  83.0539
        15.62746147 12200"},"version":"v1.0","launch":"5fb95b3f3a88ae63c954603c","longitude":127.69809982927104,"latitude":-53.13810908667012,"height_km":398.7287869807451,"velocity_kms":7.67055388075208,"id":"5fc7ec8d48e2a400068db0fc"},{"spaceTrack":{"CCSDS_OMM_VERS":"2.0","COMMENT":"GENERATED
        VIA SPACE-TRACK.ORG API","CREATION_DATE":"2021-02-07T22:46:11","ORIGINATOR":"18
        SPCS","OBJECT_NAME":"STARLINK-1873","OBJECT_ID":"2020-088AN","CENTER_NAME":"EARTH","REF_FRAME":"TEME","TIME_SYSTEM":"UTC","MEAN_ELEMENT_THEORY":"SGP4","EPOCH":"2021-02-07T20:00:01.000224","MEAN_MOTION":15.5424504,"ECCENTRICITY":0.0001233,"INCLINATION":53.058,"RA_OF_ASC_NODE":346.6237,"ARG_OF_PERICENTER":73.901,"MEAN_ANOMALY":25.5651,"EPHEMERIS_TYPE":0,"CLASSIFICATION_TYPE":"U","NORAD_CAT_ID":47158,"ELEMENT_SET_NO":999,"REV_AT_EPOCH":1245,"BSTAR":-0.018097,"MEAN_MOTION_DOT":-0.01089207,"MEAN_MOTION_DDOT":0,"SEMIMAJOR_AXIS":6782.485,"PERIOD":92.649,"APOAPSIS":405.186,"PERIAPSIS":403.514,"OBJECT_TYPE":"PAYLOAD","RCS_SIZE":"LARGE","COUNTRY_CODE":"US","LAUNCH_DATE":"2020-11-25","SITE":"AFETR","DECAY_DATE":null,"DECAYED":0,"FILE":2953544,"GP_ID":171281633,"TLE_LINE0":"0
        STARLINK-1873","TLE_LINE1":"1 47158U 20088AN  21038.83334491 -.01089207  00000-0
        -18097-1 0  9997","TLE_LINE2":"2 47158  53.0580 346.6237 0001233  73.9010  25.5651
        15.54245040 12454"},"version":"v1.0","launch":"5fb95b3f3a88ae63c954603c","longitude":58.594912881072425,"latitude":-29.385530931447164,"height_km":414.8841552323811,"velocity_kms":7.661609420976721,"id":"5fc7ec8ae4130000069e2ba5"},{"spaceTrack":{"CCSDS_OMM_VERS":"2.0","COMMENT":"GENERATED
        VIA SPACE-TRACK.ORG API","CREATION_DATE":"2021-02-07T22:46:11","ORIGINATOR":"18
        SPCS","OBJECT_NAME":"STARLINK-1868","OBJECT_ID":"2020-088AJ","CENTER_NAME":"EARTH","REF_FRAME":"TEME","TIME_SYSTEM":"UTC","MEAN_ELEMENT_THEORY":"SGP4","EPOCH":"2021-02-07T20:00:01.000224","MEAN_MOTION":15.54116307,"ECCENTRICITY":0.0001387,"INCLINATION":53.0556,"RA_OF_ASC_NODE":346.6217,"ARG_OF_PERICENTER":55.6067,"MEAN_ANOMALY":44.0068,"EPHEMERIS_TYPE":0,"CLASSIFICATION_TYPE":"U","NORAD_CAT_ID":47154,"ELEMENT_SET_NO":999,"REV_AT_EPOCH":1245,"BSTAR":-0.018178,"MEAN_MOTION_DOT":-0.01088985,"MEAN_MOTION_DDOT":0,"SEMIMAJOR_AXIS":6782.86,"PERIOD":92.657,"APOAPSIS":405.665,"PERIAPSIS":403.784,"OBJECT_TYPE":"PAYLOAD","RCS_SIZE":"LARGE","COUNTRY_CODE":"US","LAUNCH_DATE":"2020-11-25","SITE":"AFETR","DECAY_DATE":null,"DECAYED":0,"FILE":2953532,"GP_ID":171281480,"TLE_LINE0":"0
        STARLINK-1868","TLE_LINE1":"1 47154U 20088AJ  21038.83334491 -.01088985  00000-0
        -18178-1 0  9995","TLE_LINE2":"2 47154  53.0556 346.6217 0001387  55.6067  44.0068
        15.54116307 12451"},"version":"v1.0","launch":"5fb95b3f3a88ae63c954603c","longitude":58.66165645229238,"latitude":-29.447242042810704,"height_km":415.50884840431354,"velocity_kms":7.6611277213980475,"id":"5fc7ec8be4130000069e2bb4"},{"spaceTrack":{"CCSDS_OMM_VERS":"2.0","COMMENT":"GENERATED
        VIA SPACE-TRACK.ORG API","CREATION_DATE":"2021-02-07T22:46:11","ORIGINATOR":"18
        SPCS","OBJECT_NAME":"STARLINK-1907","OBJECT_ID":"2020-088BH","CENTER_NAME":"EARTH","REF_FRAME":"TEME","TIME_SYSTEM":"UTC","MEAN_ELEMENT_THEORY":"SGP4","EPOCH":"2021-02-07T20:00:01.000224","MEAN_MOTION":15.54519874,"ECCENTRICITY":0.0001323,"INCLINATION":53.056,"RA_OF_ASC_NODE":346.62,"ARG_OF_PERICENTER":60.5441,"MEAN_ANOMALY":36.2141,"EPHEMERIS_TYPE":0,"CLASSIFICATION_TYPE":"U","NORAD_CAT_ID":47177,"ELEMENT_SET_NO":999,"REV_AT_EPOCH":1249,"BSTAR":-0.01792,"MEAN_MOTION_DOT":-0.01089534,"MEAN_MOTION_DDOT":0,"SEMIMAJOR_AXIS":6781.686,"PERIOD":92.633,"APOAPSIS":404.448,"PERIAPSIS":402.653,"OBJECT_TYPE":"PAYLOAD","RCS_SIZE":"LARGE","COUNTRY_CODE":"US","LAUNCH_DATE":"2020-11-25","SITE":"AFETR","DECAY_DATE":null,"DECAYED":0,"FILE":2953577,"GP_ID":171283074,"TLE_LINE0":"0
        STARLINK-1907","TLE_LINE1":"1 47177U 20088BH  21038.83334491 -.01089534  00000-0
        -17920-1 0  9995","TLE_LINE2":"2 47177  53.0560 346.6200 0001323  60.5441  36.2141
        15.54519874 12499"},"version":"v1.0","launch":"5fb95b3f3a88ae63c954603c","longitude":56.59528291159574,"latitude":-27.49688181190817,"height_km":413.50758607649914,"velocity_kms":7.662350396370992,"id":"5fc7ec8be4130000069e2bd9"},{"spaceTrack":{"CCSDS_OMM_VERS":"2.0","COMMENT":"GENERATED
        VIA SPACE-TRACK.ORG API","CREATION_DATE":"2021-02-07T14:46:10","ORIGINATOR":"18
        SPCS","OBJECT_NAME":"STARLINK-1889","OBJECT_ID":"2020-088BC","CENTER_NAME":"EARTH","REF_FRAME":"TEME","TIME_SYSTEM":"UTC","MEAN_ELEMENT_THEORY":"SGP4","EPOCH":"2021-02-07T14:00:01.000224","MEAN_MOTION":15.0394693,"ECCENTRICITY":0.0001676,"INCLINATION":53.0605,"RA_OF_ASC_NODE":358.2456,"ARG_OF_PERICENTER":68.347,"MEAN_ANOMALY":233.1244,"EPHEMERIS_TYPE":0,"CLASSIFICATION_TYPE":"U","NORAD_CAT_ID":47172,"ELEMENT_SET_NO":999,"REV_AT_EPOCH":1231,"BSTAR":-0.0022125,"MEAN_MOTION_DOT":-0.00030995,"MEAN_MOTION_DDOT":0,"SEMIMAJOR_AXIS":6932.877,"PERIOD":95.748,"APOAPSIS":555.904,"PERIAPSIS":553.58,"OBJECT_TYPE":"PAYLOAD","RCS_SIZE":"LARGE","COUNTRY_CODE":"US","LAUNCH_DATE":"2020-11-25","SITE":"AFETR","DECAY_DATE":null,"DECAYED":0,"FILE":2953286,"GP_ID":171231607,"TLE_LINE0":"0
        STARLINK-1889","TLE_LINE1":"1 47172U 20088BC  21038.58334491 -.00030995  00000-0
        -22125-2 0  9992","TLE_LINE2":"2 47172  53.0605 358.2456 0001676  68.3470
        233.1244 15.03946930 12319"},"version":"v1.0","launch":"5fb95b3f3a88ae63c954603c","longitude":-174.628898391262,"latitude":-40.00888998532206,"height_km":568.5990425662776,"velocity_kms":7.576199583132679,"id":"5fc7ec8be4130000069e2bf0"},{"spaceTrack":{"CCSDS_OMM_VERS":"2.0","COMMENT":"GENERATED
        VIA SPACE-TRACK.ORG API","CREATION_DATE":"2021-02-07T22:46:11","ORIGINATOR":"18
        SPCS","OBJECT_NAME":"STARLINK-1914","OBJECT_ID":"2020-088BL","CENTER_NAME":"EARTH","REF_FRAME":"TEME","TIME_SYSTEM":"UTC","MEAN_ELEMENT_THEORY":"SGP4","EPOCH":"2021-02-07T20:00:01.000224","MEAN_MOTION":15.06377476,"ECCENTRICITY":0.000232,"INCLINATION":53.0567,"RA_OF_ASC_NODE":2.8774,"ARG_OF_PERICENTER":63.5464,"MEAN_ANOMALY":42.6595,"EPHEMERIS_TYPE":0,"CLASSIFICATION_TYPE":"U","NORAD_CAT_ID":47180,"ELEMENT_SET_NO":999,"REV_AT_EPOCH":1222,"BSTAR":0.002261,"MEAN_MOTION_DOT":0.00033537,"MEAN_MOTION_DDOT":0,"SEMIMAJOR_AXIS":6925.418,"PERIOD":95.594,"APOAPSIS":548.889,"PERIAPSIS":545.676,"OBJECT_TYPE":"PAYLOAD","RCS_SIZE":"LARGE","COUNTRY_CODE":"US","LAUNCH_DATE":"2020-11-25","SITE":"AFETR","DECAY_DATE":null,"DECAYED":0,"FILE":2953579,"GP_ID":171282598,"TLE_LINE0":"0
        STARLINK-1914","TLE_LINE1":"1 47180U 20088BL  21038.83334491  .00033537  00000-0  22610-2
        0  9991","TLE_LINE2":"2 47180  53.0567   2.8774 0002320  63.5464  42.6595
        15.06377476 12225"},"version":"v1.0","launch":"5fb95b3f3a88ae63c954603c","longitude":61.512163281976086,"latitude":-14.949407191118457,"height_km":552.3750440569402,"velocity_kms":7.58532314733202,"id":"5fc7ec8be4130000069e2c02"},{"spaceTrack":{"CCSDS_OMM_VERS":"2.0","COMMENT":"GENERATED
        VIA SPACE-TRACK.ORG API","CREATION_DATE":"2021-02-07T21:33:15","ORIGINATOR":"18
        SPCS","OBJECT_NAME":"STARLINK-1777","OBJECT_ID":"2020-088A","CENTER_NAME":"EARTH","REF_FRAME":"TEME","TIME_SYSTEM":"UTC","MEAN_ELEMENT_THEORY":"SGP4","EPOCH":"2021-02-07T14:00:01.000224","MEAN_MOTION":15.06414767,"ECCENTRICITY":0.0002178,"INCLINATION":53.0562,"RA_OF_ASC_NODE":354.0049,"ARG_OF_PERICENTER":76.2368,"MEAN_ANOMALY":53.6601,"EPHEMERIS_TYPE":0,"CLASSIFICATION_TYPE":"U","NORAD_CAT_ID":47122,"ELEMENT_SET_NO":999,"REV_AT_EPOCH":175,"BSTAR":-0.0015661,"MEAN_MOTION_DOT":-0.00023542,"MEAN_MOTION_DDOT":0,"SEMIMAJOR_AXIS":6925.303,"PERIOD":95.591,"APOAPSIS":548.677,"PERIAPSIS":545.66,"OBJECT_TYPE":"PAYLOAD","RCS_SIZE":"LARGE","COUNTRY_CODE":"US","LAUNCH_DATE":"2020-11-25","SITE":"AFETR","DECAY_DATE":null,"DECAYED":0,"FILE":2953300,"GP_ID":171253785,"TLE_LINE0":"0
        STARLINK-1777","TLE_LINE1":"1 47122U 20088A   21038.58334491 -.00023542  00000-0
        -15661-2 0  9994","TLE_LINE2":"2 47122  53.0562 354.0049 0002178  76.2368  53.6601
        15.06414767  1759"},"version":"v1.0","launch":"5fb95b3f3a88ae63c954603c","longitude":12.324885828887867,"latitude":31.840427330952675,"height_km":548.5031459656866,"velocity_kms":7.592294566696337,"id":"5fc7ec8be4130000069e2c13"},{"spaceTrack":{"CCSDS_OMM_VERS":"2.0","COMMENT":"GENERATED
        VIA SPACE-TRACK.ORG API","CREATION_DATE":"2021-02-07T14:36:10","ORIGINATOR":"18
